IRIDIUM 921             
1 24873U 97034E   24243.41986337  .00054113  00000+0  11128-2 0  9991
2 24873  86.3741 251.1840 0001840  65.2529 294.8919 15.45759782486629
IRIDIUM 26              
1 24903U 97043A   24243.37740072  .00001342  00000+0  45082-3 0  9997
2 24903  86.3934 232.6132 0002267  84.6065 275.5390 14.36529328414988
IRIDIUM 22              
1 24907U 97043E   24243.42088951  .00001187  00000+0  40686-3 0  9990
2 24907  86.3933 235.8903 0002314  90.7367 269.4094 14.35408891415050
DUMMY MASS 1            
1 24925U 97048A   24243.11661510  .00001066  00000+0  11772-3 0  9999
2 24925  86.3296 269.8192 0009214  96.5132 263.7142 14.86374703461882
DUMMY MASS 2            
1 24926U 97048B   24243.36728763  .00001024  00000+0  11358-3 0  9995
2 24926  86.3298 271.2605 0009937 104.5272 255.7056 14.86132292461709
IRIDIUM 29              
1 24944U 97051A   24243.33075568  .00001020  00000+0  34549-3 0  9997
2 24944  86.3901 265.8088 0002482  95.2228 264.9252 14.35858355411523
IRIDIUM 33              
1 24946U 97051C   24243.42784153  .00000680  00000+0  23443-3 0  9998
2 24946  86.3816 265.0151 0006240 319.8383  40.2351 14.34474729411057
IRIDIUM 28              
1 24948U 97051E   24243.42471033  .00001006  00000+0  33436-3 0  9996
2 24948  86.3907 263.4483 0002006  82.2727 277.8698 14.36813895412088
